{
  "norad_id": 27843,
  "name": "MOST",
  "history": [
    {
      "epoch": "2026-03-28T21:18:57.837888",
      "apogee_km": 828.736294824741,
      "perigee_km": 813.1531625148618,
      "latitude_deg": 44.278309232619776,
      "longitude_deg": -70.43573567993008,
      "semi_major_axis_km": 7199.081728669801,
      "eccentricity": 0.0010823,
      "inclination_deg": 98.7079,
      "raan_deg": 96.7262,
      "arg_perigee_deg": 121.1901,
      "mean_anomaly_deg": 239.0339,
      "mean_motion_rev_day": 14.21304418
    }
  ]
}